{"type": "FeatureCollection", "features": [{"type": "Feature", "properties": {"name": "samcheok_no_aai", "capacity_mw": 2100.0, "type": "Coal/Steam/Recirculating", "source": "user_input"}, "geometry": {"type": "Polygon", "coordinates": [[[129.1571, 37.4304], [129.1771, 37.4304], [129.1771, 37.450399999999995], [129.1571, 37.450399999999995], [129.1571, 37.4304]]]}}, {"type": "Feature", "properties": {"name": "samcheok_no_aai_substation", "type": "substation", "source": "user_input", "voltage_kv": 345.0}, "geometry": {"type": "Point", "coordinates": [128.88826334377518, 37.28537934152674]}}, {"type": "Feature", "properties": {"name": "samcheok_no_aai transmission corridor", "type": "transmission_line", "source": "user_input"}, "geometry": {"type": "LineString", "coordinates": [[129.1671, 37.4404, 0.0], [128.88826334377518, 37.28537934152674, 0.0]]}}]}